{"type": "FeatureCollection", "features": [ {"type": "Feature", "properties": {"norad_id": 30967, "name": "FENGYUN 1C DEB", "group": "fengyun-1c-debris", "lat": -49.90924675942245, "lon": -62.747689758618996, "alt_km": 667.088138272411, "timestamp": "2025-12-06T18:50:10.448156+00:00", "meta": {"OBJECT_NAME": "FENGYUN 1C DEB", "OBJECT_ID": "1999-025BBH", "EPOCH": "2025-12-06T02:35:11.250240", "MEAN_MOTION": 14.57056305, "ECCENTRICITY": 0.00947915, "INCLINATION": 98.7632, "RA_OF_ASC_NODE": 285.9818, "ARG_OF_PERICENTER": 260.2277, "MEAN_ANOMALY": 98.8205, "EPHEMERIS_TYPE": 0, "CLASSIFICATION_TYPE": "U", "NORAD_CAT_ID": 30967, "ELEMENT_SET_NO": 999, "REV_AT_EPOCH": 98917, "BSTAR": 0.0015482016, "MEAN_MOTION_DOT": 7.36e-05, "MEAN_MOTION_DDOT": 0}, "tle": {"line1": "1 30967U 99025BBH 25340.10776910  .00007360  00000+0  15482-2 0  9992", "line2": "2 30967  98.7632 285.9818 0094791 260.2277  98.8205 14.57056305989171"}}, "geometry": {"type": "Point", "coordinates": [-62.747689758618996, -49.90924675942245]}}, {"type": "Feature", "properties": {"norad_id": 30971, "name": "FENGYUN 1C DEB", "group": "fengyun-1c-debris", "lat": -20.548373947408788, "lon": -159.63366868844963, "alt_km": 547.2846887332907, "timestamp": "2025-12-06T18:50:10.448166+00:00", "meta": {"OBJECT_NAME": "FENGYUN 1C DEB", "OBJECT_ID": "1999-025BBM", "EPOCH": "2025-12-06T01:44:39.668640", "MEAN_MOTION": 14.71608949, "ECCENTRICITY": 0.01637022, "INCLINATION": 99.2098, "RA_OF_ASC_NODE": 23.0477, "ARG_OF_PERICENTER": 211.7748, "MEAN_ANOMALY": 178.52, "EPHEMERIS_TYPE": 0, "CLASSIFICATION_TYPE": "U", "NORAD_CAT_ID": 30971, "ELEMENT_SET_NO": 999, "REV_AT_EPOCH": 99619, "BSTAR": 0.0010258888, "MEAN_MOTION_DOT": 7.81e-05, "MEAN_MOTION_DDOT": 0}, "tle": {"line1": "1 30971U 99025BBM 25340.07268135  .00007810  00000+0  10259-2 0  9995", "line2": "2 30971  99.2098  23.0477 0163702 211.7748 178.5200 14.71608949996197"}}, "geometry": {"type": "Point", "coordinates": [-159.63366868844963, -20.548373947408788]}}, {"type": "Feature", "properties": {"norad_id": 30979, "name": "FENGYUN 1C DEB", "group": "fengyun-1c-debris", "lat": 73.47728417031306, "lon": 87.02162043019574, "alt_km": 749.2519470346524, "timestamp": "2025-12-06T18:50:10.448176+00:00", "meta": {"OBJECT_NAME": "FENGYUN 1C DEB", "OBJECT_ID": "1999-025BBV", "EPOCH": "2025-12-02T04:36:50.855328", "MEAN_MOTION": 14.78416107, "ECCENTRICITY": 0.01913935, "INCLINATION": 97.83, "RA_OF_ASC_NODE": 234.9135, "ARG_OF_PERICENTER": 275.775, "MEAN_ANOMALY": 240.4379, "EPHEMERIS_TYPE": 0, "CLASSIFICATION_TYPE": "U", "NORAD_CAT_ID": 30979, "ELEMENT_SET_NO": 999, "REV_AT_EPOCH": 98989, "BSTAR": 0.0013589928, "MEAN_MOTION_DOT": 0.00013437, "MEAN_MOTION_DDOT": 0}, "tle": {"line1": "1 30979U 99025BBV 25336.19225527  .00013437  00000+0  13590-2 0  9992", "line2": "2 30979  97.8300 234.9135 0191393 275.7750 240.4379 14.78416107989894"}}, "geometry": {"type": "Point", "coordinates": [87.02162043019574, 73.47728417031306]}}, {"type": "Feature", "properties": {"norad_id": 30982, "name": "FENGYUN 1C DEB", "group": "fengyun-1c-debris", "lat": -14.458417238293356, "lon": 149.0194039019892, "alt_km": 819.3728154225355, "timestamp": "2025-12-06T18:50:10.448186+00:00", "meta": {"OBJECT_NAME": "FENGYUN 1C DEB", "OBJECT_ID": "1999-025BBY", "EPOCH": "2025-12-05T22:12:24.865056", "MEAN_MOTION": 14.50910087, "ECCENTRICITY": 0.01809996, "INCLINATION": 98.2159, "RA_OF_ASC_NODE": 330.3145, "ARG_OF_PERICENTER": 333.5975, "MEAN_ANOMALY": 55.2772, "EPHEMERIS_TYPE": 0, "CLASSIFICATION_TYPE": "U", "NORAD_CAT_ID": 30982, "ELEMENT_SET_NO": 999, "REV_AT_EPOCH": 70955, "BSTAR": 0.00069007546, "MEAN_MOTION_DOT": 3.315e-05, "MEAN_MOTION_DDOT": 0}, "tle": {"line1": "1 30982U 99025BBY 25339.92528779  .00003315  00000+0  69008-3 0  9995", "line2": "2 30982  98.2159 330.3145 0180999 333.5975  55.2772 14.50910087709557"}}, "geometry": {"type": "Point", "coordinates": [149.0194039019892, -14.458417238293356]}}, {"type": "Feature", "properties": {"norad_id": 30984, "name": "FENGYUN 1C DEB", "group": "fengyun-1c-debris", "lat": 80.80171818064326, "lon": -46.61860195398893, "alt_km": 670.2078971129731, "timestamp": "2025-12-06T18:50:10.448196+00:00", "meta": {"OBJECT_NAME": "FENGYUN 1C DEB", "OBJECT_ID": "1999-025BCA", "EPOCH": "2025-12-03T01:02:26.854368", "MEAN_MOTION": 14.50329769, "ECCENTRICITY": 0.01281668, "INCLINATION": 98.2653, "RA_OF_ASC_NODE": 13.5601, "ARG_OF_PERICENTER": 37.7619, "MEAN_ANOMALY": 323.2485, "EPHEMERIS_TYPE": 0, "CLASSIFICATION_TYPE": "U", "NORAD_CAT_ID": 30984, "ELEMENT_SET_NO": 999, "REV_AT_EPOCH": 95023, "BSTAR": 0.00098864934, "MEAN_MOTION_DOT": 4.238e-05, "MEAN_MOTION_DDOT": 0}, "tle": {"line1": "1 30984U 99025BCA 25337.04336637  .00004238  00000+0  98865-3 0  9996", "line2": "2 30984  98.2653  13.5601 0128166  37.7619 323.2485 14.50329769950234"}}, "geometry": {"type": "Point", "coordinates": [-46.61860195398893, 80.80171818064326]}}, {"type": "Feature", "properties": {"norad_id": 30988, "name": "FENGYUN 1C DEB", "group": "fengyun-1c-debris", "lat": -55.08615002015171, "lon": 94.87102635368505, "alt_km": 542.6252647946276, "timestamp": "2025-12-06T18:50:10.448206+00:00", "meta": {"OBJECT_NAME": "FENGYUN 1C DEB", "OBJECT_ID": "1999-025BCE", "EPOCH": "2025-12-05T07:09:19.444608", "MEAN_MOTION": 15.2483189, "ECCENTRICITY": 0.01177418, "INCLINATION": 98.5424, "RA_OF_ASC_NODE": 285.6124, "ARG_OF_PERICENTER": 5.7014, "MEAN_ANOMALY": 354.5529, "EPHEMERIS_TYPE": 0, "CLASSIFICATION_TYPE": "U", "NORAD_CAT_ID": 30988, "ELEMENT_SET_NO": 999, "REV_AT_EPOCH": 99450, "BSTAR": 0.003279962, "MEAN_MOTION_DOT": 0.00100351, "MEAN_MOTION_DDOT": 0}, "tle": {"line1": "1 30988U 99025BCE 25339.29814172  .00100351  00000+0  32800-2 0  9993", "line2": "2 30988  98.5424 285.6124 0117741   5.7014 354.5529 15.24831890994509"}}, "geometry": {"type": "Point", "coordinates": [94.87102635368505, -55.08615002015171]}}, {"type": "Feature", "properties": {"norad_id": 30989, "name": "FENGYUN 1C DEB", "group": "fengyun-1c-debris", "lat": -64.75631583621778, "lon": -145.4899172032644, "alt_km": 895.321843307318, "timestamp": "2025-12-06T18:50:10.448216+00:00", "meta": {"OBJECT_NAME": "FENGYUN 1C DEB", "OBJECT_ID": "1999-025BCF", "EPOCH": "2025-12-06T04:05:45.204576", "MEAN_MOTION": 14.13877322, "ECCENTRICITY": 0.00916931, "INCLINATION": 99.0541, "RA_OF_ASC_NODE": 53.6546, "ARG_OF_PERICENTER": 118.2346, "MEAN_ANOMALY": 242.812, "EPHEMERIS_TYPE": 0, "CLASSIFICATION_TYPE": "U", "NORAD_CAT_ID": 30989, "ELEMENT_SET_NO": 999, "REV_AT_EPOCH": 95895, "BSTAR": 0.0024741921, "MEAN_MOTION_DOT": 4.84e-05, "MEAN_MOTION_DDOT": 0}, "tle": {"line1": "1 30989U 99025BCF 25340.17066209  .00004840  00000+0  24742-2 0  9995", "line2": "2 30989  99.0541  53.6546 0091693 118.2346 242.8120 14.13877322958954"}}, "geometry": {"type": "Point", "coordinates": [-145.4899172032644, -64.75631583621778]}}, {"type": "Feature", "properties": {"norad_id": 30993, "name": "FENGYUN 1C DEB", "group": "fengyun-1c-debris", "lat": 78.82488231261864, "lon": 21.038817061044842, "alt_km": 758.915676923456, "timestamp": "2025-12-06T18:50:10.448226+00:00", "meta": {"OBJECT_NAME": "FENGYUN 1C DEB", "OBJECT_ID": "1999-025BCK", "EPOCH": "2025-12-06T05:12:58.034304", "MEAN_MOTION": 14.35318167, "ECCENTRICITY": 0.00165169, "INCLINATION": 98.8473, "RA_OF_ASC_NODE": 72.4947, "ARG_OF_PERICENTER": 35.3982, "MEAN_ANOMALY": 356.9031, "EPHEMERIS_TYPE": 0, "CLASSIFICATION_TYPE": "U", "NORAD_CAT_ID": 30993, "ELEMENT_SET_NO": 999, "REV_AT_EPOCH": 96826, "BSTAR": 0.0030490933, "MEAN_MOTION_DOT": 8.716e-05, "MEAN_MOTION_DDOT": 0}, "tle": {"line1": "1 30993U 99025BCK 25340.21733836  .00008716  00000+0  30491-2 0  9996", "line2": "2 30993  98.8473  72.4947 0016516  35.3982 356.9031 14.35318167968264"}}, "geometry": {"type": "Point", "coordinates": [21.038817061044842, 78.82488231261864]}}, {"type": "Feature", "properties": {"norad_id": 30994, "name": "FENGYUN 1C DEB", "group": "fengyun-1c-debris", "lat": -80.64254869449857, "lon": 101.09703519644674, "alt_km": 857.3533298082566, "timestamp": "2025-12-06T18:50:10.448236+00:00", "meta": {"OBJECT_NAME": "FENGYUN 1C DEB", "OBJECT_ID": "1999-025BCL", "EPOCH": "2025-12-05T10:57:39.356064", "MEAN_MOTION": 14.11764245, "ECCENTRICITY": 0.00174717, "INCLINATION": 98.7002, "RA_OF_ASC_NODE": 348.122, "ARG_OF_PERICENTER": 195.4155, "MEAN_ANOMALY": 164.6487, "EPHEMERIS_TYPE": 0, "CLASSIFICATION_TYPE": "U", "NORAD_CAT_ID": 30994, "ELEMENT_SET_NO": 999, "REV_AT_EPOCH": 96482, "BSTAR": 0.00027986679, "MEAN_MOTION_DOT": 4.68e-06, "MEAN_MOTION_DDOT": 0}, "tle": {"line1": "1 30994U 99025BCL 25339.45670551  .00000468  00000+0  27987-3 0  9998", "line2": "2 30994  98.7002 348.1220 0017471 195.4155 164.6487 14.11764245964823"}}, "geometry": {"type": "Point", "coordinates": [101.09703519644674, -80.64254869449857]}}, {"type": "Feature", "properties": {"norad_id": 30996, "name": "FENGYUN 1C DEB", "group": "fengyun-1c-debris", "lat": -23.19369759991961, "lon": -110.60471958903652, "alt_km": 746.9608612901402, "timestamp": "2025-12-06T18:50:10.448246+00:00", "meta": {"OBJECT_NAME": "FENGYUN 1C DEB", "OBJECT_ID": "1999-025BCN", "EPOCH": "2025-12-05T05:10:38.888832", "MEAN_MOTION": 14.35345795, "ECCENTRICITY": 0.00506821, "INCLINATION": 98.9441, "RA_OF_ASC_NODE": 243.9005, "ARG_OF_PERICENTER": 314.0679, "MEAN_ANOMALY": 198.8324, "EPHEMERIS_TYPE": 0, "CLASSIFICATION_TYPE": "U", "NORAD_CAT_ID": 30996, "ELEMENT_SET_NO": 999, "REV_AT_EPOCH": 97455, "BSTAR": 0.0020132664, "MEAN_MOTION_DOT": 5.815e-05, "MEAN_MOTION_DDOT": 0}, "tle": {"line1": "1 30996U 99025BCN 25339.21572788  .00005815  00000+0  20133-2 0  9993", "line2": "2 30996  98.9441 243.9005 0050682 314.0679 198.8324 14.35345795974559"}}, "geometry": {"type": "Point", "coordinates": [-110.60471958903652, -23.19369759991961]}}]}